1 42864U 17042AR  19153.87562605  .00003353  00000-0  85289-4 0  9996
2 42864  96.9424  37.7221 0007358 283.4767  76.5660 15.40230937105552
1 42864U 17042AR  19154.65524066  .00003547  00000-0  90080-4 0  9992
2 42864  96.9420  38.4621 0007346 279.8496  80.1921 15.40237107105675
1 42864U 17042AR  19154.91511185  .00003649  00000-0  92613-4 0  9996
2 42864  96.9420  38.7087 0007336 278.6283  81.4133 15.40238948105712
1 42864U 17042AR  19155.75968967  .00003965  00000-0  10045-3 0  9992
2 42864  96.9416  39.5102 0007313 274.5893  85.4519 15.40246259105841
1 42864U 17042AR  19156.86413139  .00004782  00000-0  12072-3 0  9991
2 42864  96.9413  40.5583 0007286 269.4998  90.5414 15.40257402106014
1 42864U 17042AR  19157.64373328  .00004012  00000-0  10156-3 0  9990
2 42864  96.9411  41.2981 0007298 265.9036  94.1378 15.40262631106131
1 42864U 17042AR  19158.22843226  .00003893  00000-0  98597-4 0  9996
2 42864  96.9410  41.8529 0007300 263.1424  96.8993 15.40267747106224
1 42864U 17042AR  19158.74816353  .00003916  00000-0  99144-4 0  9999
2 42864  96.9409  42.3461 0007299 260.7066  99.3356 15.40272110106305
1 42864U 17042AR  19159.65768988  .00004082  00000-0  10325-3 0  9998
2 42864  96.9409  43.2092 0007321 256.4624 103.5808 15.40279553106446
1 42864U 17042AR  19160.63217637  .00005059  00000-0  12744-3 0  9990
2 42864  96.9409  44.1340 0007348 251.9661 108.0785 15.40290516106594
1 42864U 17042AR  19161.21686529  .00004460  00000-0  11258-3 0  9999
2 42864  96.9411  44.6889 0007364 249.2143 110.8316 15.40294841106689
1 42864U 17042AR  19161.60665711  .00004317  00000-0  10901-3 0  9997
2 42864  96.9411  45.0589 0007380 247.3823 112.6644 15.40298013106749
1 42864U 17042AR  19162.45120275  .00004116  00000-0  10399-3 0  9990
2 42864  96.9412  45.8606 0007430 243.5017 116.5469 15.40305382106877
1 42864U 17042AR  19162.64609761  .00003986  00000-0  10078-3 0  9991
2 42864  96.9412  46.0456 0007442 242.7073 117.3416 15.40306724106905
1 42864U 17042AR  19163.62056860  .00003837  00000-0  97054-4 0  9991
2 42864  96.9413  46.9705 0007499 238.3400 121.7117 15.40313978107052
1 42864U 17042AR  19163.88042668  .00004153  00000-0  10488-3 0  9997
2 42864  96.9414  47.2171 0007517 237.1224 122.9301 15.40316628107093
1 42864U 17042AR  19164.65999979  .00004133  00000-0  10436-3 0  9990
2 42864  96.9414  47.9570 0007559 233.6945 126.3604 15.40321886107210
1 42864U 17042AR  19164.85489234  .00004352  00000-0  10979-3 0  9995
2 42864  96.9414  48.1420 0007566 232.8325 127.2232 15.40323936107246
1 42864U 17042AR  19165.63446142  .00004146  00000-0  10466-3 0  9995
2 42864  96.9413  48.8819 0007632 229.4789 130.5795 15.40329442107366
1 42864U 17042AR  19166.15417235  .00004201  00000-0  10600-3 0  9996
2 42864  96.9413  49.3753 0007669 227.0981 132.9623 15.40333687107448
1 42864U 17042AR  19166.86877260  .00003842  00000-0  97082-4 0  9992
2 42864  96.9412  50.0536 0007732 223.7902 136.2733 15.40338540107556
1 42864U 17042AR  19167.19359031  .00003536  00000-0  89510-4 0  9997
2 42864  96.9410  50.3619 0007769 222.3727 137.6921 15.40340333107602
1 42864U 17042AR  19167.90818743  .00003688  00000-0  93252-4 0  9992
2 42864  96.9408  51.0402 0007840 219.3911 140.6767 15.40345788107711
1 42864U 17042AR  19168.23300361  .00003219  00000-0  81628-4 0  9995
2 42864  96.9406  51.3485 0007881 217.8902 142.1792 15.40347075107762
1 42864U 17042AR  19168.88263488  .00003475  00000-0  87967-4 0  9990
2 42864  96.9404  51.9650 0007944 215.1618 144.9106 15.40351742107861
1 42864U 17042AR  19169.66219082  .00003072  00000-0  77960-4 0  9993
2 42864  96.9400  52.7046 0008010 212.0616 148.0145 15.40355393107981
1 42864U 17042AR  19169.85707912  .00003249  00000-0  82351-4 0  9994
2 42864  96.9400  52.8896 0008032 211.2163 148.8608 15.40357197108018
1 42864U 17042AR  19170.18189306  .00002966  00000-0  75335-4 0  9992
2 42864  96.9399  53.1979 0008065 209.8437 150.2352 15.40358274108069
1 42864U 17042AR  19171.15633287  .00002833  00000-0  72016-4 0  9998
2 42864  96.9396  54.1226 0008183 205.8327 154.2513 15.40363300108213
1 42864U 17042AR  19171.74099474  .00003095  00000-0  78495-4 0  9995
2 42864  96.9396  54.6773 0008237 203.5121 156.5751 15.40367571108305
1 42864U 17042AR  19172.19573095  .00003276  00000-0  82964-4 0  9998
2 42864  96.9395  55.1088 0008270 201.6777 158.4122 15.40370803108374
1 42864U 17042AR  19172.91031478  .00003260  00000-0  82569-4 0  9996
2 42864  96.9394  55.7869 0008369 198.7719 161.3221 15.40374980108482
1 42864U 17042AR  19173.23512469  .00003290  00000-0  83290-4 0  9991
2 42864  96.9393  56.0952 0008416 197.3349 162.7612 15.40377211108530
1 42864U 17042AR  19173.62489623  .00003272  00000-0  82831-4 0  9999
2 42864  96.9393  56.4650 0008463 195.8471 164.2512 15.40379569108590
1 42864U 17042AR  19174.46939965  .00002947  00000-0  74800-4 0  9996
2 42864  96.9393  57.2664 0008566 192.5344 167.5691 15.40383622108725
1 42864U 17042AR  19174.92413088  .00002915  00000-0  73993-4 0  9997
2 42864  96.9393  57.6979 0008618 190.7706 169.3358 15.40386385108794
1 42864U 17042AR  19175.31389997  .00003083  00000-0  78133-4 0  9990
2 42864  96.9393  58.0678 0008669 189.1898 170.9192 15.40389188108850
1 42864U 17042AR  19176.15839762  .00003136  00000-0  79437-4 0  9990
2 42864  96.9393  58.8692 0008781 185.9876 174.1268 15.40394478108981
1 42864U 17042AR  19176.22335902  .00003038  00000-0  77009-4 0  9999
2 42864  96.9393  58.9309 0008788 185.7424 174.3724 15.40394451108992
1 42864U 17042AR  19177.19777568  .00002997  00000-0  75978-4 0  9990
2 42864  96.9394  59.8557 0008911 182.1048 178.0164 15.40400128109145
1 42864U 17042AR  19177.84738470  .00003189  00000-0  80709-4 0  9993
2 42864  96.9394  60.4722 0008988 179.7503 180.3750 15.40404588109241
1 42864U 17042AR  19178.30211006  .00003165  00000-0  80113-4 0  9999
2 42864  96.9394  60.9038 0009049 178.0767 182.0516 15.40407241109315
1 42864U 17042AR  19178.88675547  .00003308  00000-0  83619-4 0  9999
2 42864  96.9395  61.4587 0009130 175.9669 184.1653 15.40411380109403
1 42864U 17042AR  19179.66628062  .00003204  00000-0  81044-4 0  9991
2 42864  96.9394  62.1986 0009228 173.2268 186.9105 15.40416113109521
1 42864U 17042AR  19179.92612211  .00003061  00000-0  77503-4 0  9995
2 42864  96.9394  62.4452 0009261 172.2574 187.8819 15.40417125109568
1 42864U 17042AR  19180.83556394  .00003159  00000-0  79914-4 0  9992
2 42864  96.9393  63.3083 0009370 168.9508 191.1946 15.40423313109708
1 42864U 17042AR  19180.90052401  .00003129  00000-0  79171-4 0  9992
2 42864  96.9393  63.3700 0009373 168.7066 191.4393 15.40423605109718
1 42864U 17042AR  19181.87492207  .00003151  00000-0  79697-4 0  9999
2 42864  96.9391  64.2946 0009484 165.2505 194.9021 15.40429910109868
1 42864U 17042AR  19182.13476080  .00003206  00000-0  81051-4 0  9998
2 42864  96.9391  64.5412 0009520 164.3708 195.7835 15.40431810109904
1 42864U 17042AR  19182.84931544  .00003848  00000-0  96868-4 0  9991
2 42864  96.9390  65.2194 0009638 161.9105 198.2487 15.40438080110013
1 42864U 17042AR  19183.17411207  .00003858  00000-0  97117-4 0  9996
2 42864  96.9388  65.5276 0009687 160.8349 199.3264 15.40440685110060
1 42864U 17042AR  19183.62882659  .00003777  00000-0  95090-4 0  9997
2 42864  96.9386  65.9591 0009734 159.3191 200.8452 15.40443926110139
1 42864U 17042AR  19184.21345748  .00003981  00000-0  10011-3 0  9992
2 42864  96.9385  66.5139 0009820 157.3161 202.8523 15.40449336110226
1 42864U 17042AR  19184.86304514  .00004129  00000-0  10373-3 0  9995
2 42864  96.9382  67.1302 0009907 155.1238 205.0489 15.40455292110324
1 42864U 17042AR  19185.44767253  .00003789  00000-0  95348-4 0  9990
2 42864  96.9379  67.6850 0009961 153.1556 207.0209 15.40459238110410
1 42864U 17042AR  19185.90238156  .00003941  00000-0  99074-4 0  9996
2 42864  96.9378  68.1165 0010002 151.5909 208.5886 15.40463159110487
1 42864U 17042AR  19186.61692263  .00003536  00000-0  89073-4 0  9996
2 42864  96.9376  68.7944 0010070 149.1992 210.9848 15.40467370110592
1 42864U 17042AR  19186.87675509  .00003719  00000-0  93561-4 0  9998
2 42864  96.9376  69.0409 0010108 148.3508 211.8350 15.40469570110635
1 42864U 17042AR  19187.72120909  .00003166  00000-0  79926-4 0  9997
2 42864  96.9376  69.8420 0010173 145.5538 214.6371 15.40473801110760
1 42864U 17042AR  19187.85112489  .00003108  00000-0  78498-4 0  9994
2 42864  96.9376  69.9653 0010193 145.1246 215.0671 15.40474409110788
1 42864U 17042AR  19188.89044861  .00003060  00000-0  77284-4 0  9996
2 42864  96.9375  70.9515 0010305 141.7478 218.4502 15.40480619110948
1 42864U 17042AR  19189.15027870  .00003161  00000-0  79767-4 0  9997
2 42864  96.9375  71.1980 0010353 140.8985 219.3013 15.40482657110988
1 42864U 17042AR  19189.86481008  .00003482  00000-0  87669-4 0  9998
2 42864  96.9376  71.8761 0010415 138.6125 221.5913 15.40488155111099
1 42864U 17042AR  19190.18959556  .00004289  00000-0  10753-3 0  9998
2 42864  96.9376  72.1843 0010438 137.5499 222.6558 15.40493207111148
1 42864U 17042AR  19190.90412342  .00004261  00000-0  10683-3 0  9997
2 42864  96.9376  72.8623 0010524 135.3671 224.8425 15.40497300111252
1 42864U 17042AR  19191.29386358  .00005234  00000-0  13073-3 0  9994
2 42864  96.9377  73.2322 0010557 134.1699 226.0418 15.40503315111314
1 42864U 17042AR  19191.74855955  .00005228  00000-0  13058-3 0  9994
2 42864  96.9377  73.6637 0010600 132.7418 227.4723 15.40507708111380
1 42864U 17042AR  19193.89210647  .00004242  00000-0  10622-3 0  9994
2 42864  96.9378  75.6980 0010809 126.0191 234.2060 15.40528550111714
1 42864U 17042AR  19194.86643713  .00003720  00000-0  93358-4 0  9994
2 42864  96.9378  76.6226 0010887 122.9647 237.2649 15.40535932111869
1 42864U 17042AR  19195.19121282  .00003775  00000-0  94708-4 0  9993
2 42864  96.9377  76.9309 0010906 122.0066 238.2243 15.40538898111912
1 42864U 17042AR  19195.90571856  .00003345  00000-0  84115-4 0  9992
2 42864  96.9375  77.6090 0010949 119.8357 240.3980 15.40542781112020
